STARLINK-31667          
1 59609U 24080J   26068.27062851  .00003890  00000+0  15089-3 0  9991
2 59609  42.9959  36.3757 0001098 245.9723 114.1014 15.27556774104512
ION SCV-017             
1 63230U 25052W   26068.71648816  .00006457  00000+0  24539-3 0  9998
2 63230  97.4016 324.7516 0023746  44.9875 315.3282 15.26881798 54851
